{
 "type": "FeatureCollection",
 "name": "Bihar Districts",
 "features": [
  {
   "type": "Feature",
   "properties": {
    "name": "Araria",
    "state": "Bihar",
    "hq_lat": 26.15,
    "hq_lng": 87.52
   },
   "geometry": {
    "type": "Polygon",
    "coordinates": [
     [
      [
       87.52,
       26.4
      ],
      [
       87.7281,
       26.3368
      ],
      [
       87.7762,
       26.15
      ],
      [
       87.7281,
       25.9632
      ],
      [
       87.52,
       25.9
      ],
      [
       87.3342,
       25.9832
      ],
      [
       87.2192,
       26.15
      ],
      [
       87.3342,
       26.3168
      ],
      [
       87.52,
       26.4
      ]
     ]
    ]
   }
  },
  {
   "type": "Feature",
   "properties": {
    "name": "Arwal",
    "state": "Bihar",
    "hq_lat": 25.24,
    "hq_lng": 84.66
   },
   "geometry": {
    "type": "Polygon",
    "coordinates": [
     [
      [
       84.66,
       25.38
      ],
      [
       84.7756,
       25.3446
      ],
      [
       84.8024,
       25.24
      ],
      [
       84.7756,
       25.1354
      ],
      [
       84.66,
       25.1
      ],
      [
       84.5567,
       25.1466
      ],
      [
       84.4928,
       25.24
      ],
      [
       84.5567,
       25.3334
      ],
      [
       84.66,
       25.38
      ]
     ]
    ]
   }
  },
  {
   "type": "Feature",
   "properties": {
    "name": "Aurangabad",
    "state": "Bihar",
    "hq_lat": 24.75,
    "hq_lng": 84.37
   },
   "geometry": {
    "type": "Polygon",
    "coordinates": [
     [
      [
       84.37,
       25.05
      ],
      [
       84.6168,
       24.9741
      ],
      [
       84.6739,
       24.75
      ],
      [
       84.6168,
       24.5259
      ],
      [
       84.37,
       24.45
      ],
      [
       84.1496,
       24.5499
      ],
      [
       84.0132,
       24.75
      ],
      [
       84.1496,
       24.9501
      ],
      [
       84.37,
       25.05
      ]
     ]
    ]
   }
  },
  {
   "type": "Feature",
   "properties": {
    "name": "Banka",
    "state": "Bihar",
    "hq_lat": 24.89,
    "hq_lng": 86.92
   },
   "geometry": {
    "type": "Polygon",
    "coordinates": [
     [
      [
       86.92,
       25.13
      ],
      [
       87.1177,
       25.0693
      ],
      [
       87.1634,
       24.89
      ],
      [
       87.1177,
       24.7107
      ],
      [
       86.92,
       24.65
      ],
      [
       86.7435,
       24.7299
      ],
      [
       86.6343,
       24.89
      ],
      [
       86.7435,
       25.0501
      ],
      [
       86.92,
       25.13
      ]
     ]
    ]
   }
  },
  {
   "type": "Feature",
   "properties": {
    "name": "Begusarai",
    "state": "Bihar",
    "hq_lat": 25.42,
    "hq_lng": 86.13
   },
   "geometry": {
    "type": "Polygon",
    "coordinates": [
     [
      [
       86.13,
       25.64
      ],
      [
       86.312,
       25.5844
      ],
      [
       86.3541,
       25.42
      ],
      [
       86.312,
       25.2556
      ],
      [
       86.13,
       25.2
      ],
      [
       85.9675,
       25.2732
      ],
      [
       85.8669,
       25.42
      ],
      [
       85.9675,
       25.5668
      ],
      [
       86.13,
       25.64
      ]
     ]
    ]
   }
  },
  {
   "type": "Feature",
   "properties": {
    "name": "Bhagalpur",
    "state": "Bihar",
    "hq_lat": 25.24,
    "hq_lng": 86.97
   },
   "geometry": {
    "type": "Polygon",
    "coordinates": [
     [
      [
       86.97,
       25.52
      ],
      [
       87.2013,
       25.4492
      ],
      [
       87.2548,
       25.24
      ],
      [
       87.2013,
       25.0308
      ],
      [
       86.97,
       24.96
      ],
      [
       86.7635,
       25.0532
      ],
      [
       86.6357,
       25.24
      ],
      [
       86.7635,
       25.4268
      ],
      [
       86.97,
       25.52
      ]
     ]
    ]
   }
  },
  {
   "type": "Feature",
   "properties": {
    "name": "Bhojpur",
    "state": "Bihar",
    "hq_lat": 25.57,
    "hq_lng": 84.44
   },
   "geometry": {
    "type": "Polygon",
    "coordinates": [
     [
      [
       84.44,
       25.79
      ],
      [
       84.6222,
       25.7344
      ],
      [
       84.6644,
       25.57
      ],
      [
       84.6222,
       25.4056
      ],
      [
       84.44,
       25.35
      ],
      [
       84.2773,
       25.4232
      ],
      [
       84.1766,
       25.57
      ],
      [
       84.2773,
       25.7168
      ],
      [
       84.44,
       25.79
      ]
     ]
    ]
   }
  },
  {
   "type": "Feature",
   "properties": {
    "name": "Buxar",
    "state": "Bihar",
    "hq_lat": 25.56,
    "hq_lng": 83.98
   },
   "geometry": {
    "type": "Polygon",
    "coordinates": [
     [
      [
       83.98,
       25.76
      ],
      [
       84.1456,
       25.7094
      ],
      [
       84.184,
       25.56
      ],
      [
       84.1456,
       25.4106
      ],
      [
       83.98,
       25.36
      ],
      [
       83.8321,
       25.4266
      ],
      [
       83.7406,
       25.56
      ],
      [
       83.8321,
       25.6934
      ],
      [
       83.98,
       25.76
      ]
     ]
    ]
   }
  },
  {
   "type": "Feature",
   "properties": {
    "name": "Darbhanga",
    "state": "Bihar",
    "hq_lat": 26.17,
    "hq_lng": 85.9
   },
   "geometry": {
    "type": "Polygon",
    "coordinates": [
     [
      [
       85.9,
       26.42
      ],
      [
       86.1081,
       26.3568
      ],
      [
       86.1563,
       26.17
      ],
      [
       86.1081,
       25.9832
      ],
      [
       85.9,
       25.92
      ],
      [
       85.7142,
       26.0032
      ],
      [
       85.5992,
       26.17
      ],
      [
       85.7142,
       26.3368
      ],
      [
       85.9,
       26.42
      ]
     ]
    ]
   }
  },
  {
   "type": "Feature",
   "properties": {
    "name": "East Champaran",
    "state": "Bihar",
    "hq_lat": 26.65,
    "hq_lng": 84.85
   },
   "geometry": {
    "type": "Polygon",
    "coordinates": [
     [
      [
       84.85,
       26.97
      ],
      [
       85.1175,
       26.8891
      ],
      [
       85.1794,
       26.65
      ],
      [
       85.1175,
       26.4109
      ],
      [
       84.85,
       26.33
      ],
      [
       84.6112,
       26.4365
      ],
      [
       84.4633,
       26.65
      ],
      [
       84.6112,
       26.8635
      ],
      [
       84.85,
       26.97
      ]
     ]
    ]
   }
  },
  {
   "type": "Feature",
   "properties": {
    "name": "Gaya",
    "state": "Bihar",
    "hq_lat": 24.8,
    "hq_lng": 84.99
   },
   "geometry": {
    "type": "Polygon",
    "coordinates": [
     [
      [
       84.99,
       25.15
      ],
      [
       85.2781,
       25.0615
      ],
      [
       85.3447,
       24.8
      ],
      [
       85.2781,
       24.5385
      ],
      [
       84.99,
       24.45
      ],
      [
       84.7328,
       24.5665
      ],
      [
       84.5736,
       24.8
      ],
      [
       84.7328,
       25.0335
      ],
      [
       84.99,
       25.15
      ]
     ]
    ]
   }
  },
  {
   "type": "Feature",
   "properties": {
    "name": "Gopalganj",
    "state": "Bihar",
    "hq_lat": 26.47,
    "hq_lng": 84.44
   },
   "geometry": {
    "type": "Polygon",
    "coordinates": [
     [
      [
       84.44,
       26.69
      ],
      [
       84.6236,
       26.6344
      ],
      [
       84.6661,
       26.47
      ],
      [
       84.6236,
       26.3056
      ],
      [
       84.44,
       26.25
      ],
      [
       84.276,
       26.3232
      ],
      [
       84.1746,
       26.47
      ],
      [
       84.276,
       26.6168
      ],
      [
       84.44,
       26.69
      ]
     ]
    ]
   }
  },
  {
   "type": "Feature",
   "properties": {
    "name": "Jamui",
    "state": "Bihar",
    "hq_lat": 24.92,
    "hq_lng": 86.22
   },
   "geometry": {
    "type": "Polygon",
    "coordinates": [
     [
      [
       86.22,
       25.2
      ],
      [
       86.4507,
       25.1292
      ],
      [
       86.504,
       24.92
      ],
      [
       86.4507,
       24.7108
      ],
      [
       86.22,
       24.64
      ],
      [
       86.014,
       24.7332
      ],
      [
       85.8866,
       24.92
      ],
      [
       86.014,
       25.1068
      ],
      [
       86.22,
       25.2
      ]
     ]
    ]
   }
  },
  {
   "type": "Feature",
   "properties": {
    "name": "Jehanabad",
    "state": "Bihar",
    "hq_lat": 25.21,
    "hq_lng": 84.99
   },
   "geometry": {
    "type": "Polygon",
    "coordinates": [
     [
      [
       84.99,
       25.37
      ],
      [
       85.1221,
       25.3295
      ],
      [
       85.1527,
       25.21
      ],
      [
       85.1221,
       25.0905
      ],
      [
       84.99,
       25.05
      ],
      [
       84.872,
       25.1033
      ],
      [
       84.799,
       25.21
      ],
      [
       84.872,
       25.3167
      ],
      [
       84.99,
       25.37
      ]
     ]
    ]
   }
  },
  {
   "type": "Feature",
   "properties": {
    "name": "Kaimur",
    "state": "Bihar",
    "hq_lat": 25.05,
    "hq_lng": 83.58
   },
   "geometry": {
    "type": "Polygon",
    "coordinates": [
     [
      [
       83.58,
       25.35
      ],
      [
       83.8274,
       25.2741
      ],
      [
       83.8847,
       25.05
      ],
      [
       83.8274,
       24.8259
      ],
      [
       83.58,
       24.75
      ],
      [
       83.3591,
       24.8499
      ],
      [
       83.2224,
       25.05
      ],
      [
       83.3591,
       25.2501
      ],
      [
       83.58,
       25.35
      ]
     ]
    ]
   }
  },
  {
   "type": "Feature",
   "properties": {
    "name": "Katihar",
    "state": "Bihar",
    "hq_lat": 25.54,
    "hq_lng": 87.58
   },
   "geometry": {
    "type": "Polygon",
    "coordinates": [
     [
      [
       87.58,
       25.82
      ],
      [
       87.8118,
       25.7492
      ],
      [
       87.8655,
       25.54
      ],
      [
       87.8118,
       25.3308
      ],
      [
       87.58,
       25.26
      ],
      [
       87.373,
       25.3532
      ],
      [
       87.2449,
       25.54
      ],
      [
       87.373,
       25.7268
      ],
      [
       87.58,
       25.82
      ]
     ]
    ]
   }
  },
  {
   "type": "Feature",
   "properties": {
    "name": "Khagaria",
    "state": "Bihar",
    "hq_lat": 25.5,
    "hq_lng": 86.47
   },
   "geometry": {
    "type": "Polygon",
    "coordinates": [
     [
      [
       86.47,
       25.68
      ],
      [
       86.619,
       25.6345
      ],
      [
       86.6535,
       25.5
      ],
      [
       86.619,
       25.3655
      ],
      [
       86.47,
       25.32
      ],
      [
       86.337,
       25.3799
      ],
      [
       86.2546,
       25.5
      ],
      [
       86.337,
       25.6201
      ],
      [
       86.47,
       25.68
      ]
     ]
    ]
   }
  },
  {
   "type": "Feature",
   "properties": {
    "name": "Kishanganj",
    "state": "Bihar",
    "hq_lat": 26.1,
    "hq_lng": 87.95
   },
   "geometry": {
    "type": "Polygon",
    "coordinates": [
     [
      [
       87.95,
       26.32
      ],
      [
       88.133,
       26.2644
      ],
      [
       88.1754,
       26.1
      ],
      [
       88.133,
       25.9356
      ],
      [
       87.95,
       25.88
      ],
      [
       87.7866,
       25.9532
      ],
      [
       87.6854,
       26.1
      ],
      [
       87.7866,
       26.2468
      ],
      [
       87.95,
       26.32
      ]
     ]
    ]
   }
  },
  {
   "type": "Feature",
   "properties": {
    "name": "Lakhisarai",
    "state": "Bihar",
    "hq_lat": 25.16,
    "hq_lng": 86.09
   },
   "geometry": {
    "type": "Polygon",
    "coordinates": [
     [
      [
       86.09,
       25.32
      ],
      [
       86.2221,
       25.2795
      ],
      [
       86.2526,
       25.16
      ],
      [
       86.2221,
       25.0405
      ],
      [
       86.09,
       25.0
      ],
      [
       85.9721,
       25.0533
      ],
      [
       85.8991,
       25.16
      ],
      [
       85.9721,
       25.2667
      ],
      [
       86.09,
       25.32
      ]
     ]
    ]
   }
  },
  {
   "type": "Feature",
   "properties": {
    "name": "Madhepura",
    "state": "Bihar",
    "hq_lat": 25.92,
    "hq_lng": 86.79
   },
   "geometry": {
    "type": "Polygon",
    "coordinates": [
     [
      [
       86.79,
       26.14
      ],
      [
       86.9727,
       26.0844
      ],
      [
       87.015,
       25.92
      ],
      [
       86.9727,
       25.7556
      ],
      [
       86.79,
       25.7
      ],
      [
       86.6268,
       25.7732
      ],
      [
       86.5258,
       25.92
      ],
      [
       86.6268,
       26.0668
      ],
      [
       86.79,
       26.14
      ]
     ]
    ]
   }
  },
  {
   "type": "Feature",
   "properties": {
    "name": "Madhubani",
    "state": "Bihar",
    "hq_lat": 26.35,
    "hq_lng": 86.07
   },
   "geometry": {
    "type": "Polygon",
    "coordinates": [
     [
      [
       86.07,
       26.65
      ],
      [
       86.3201,
       26.5741
      ],
      [
       86.378,
       26.35
      ],
      [
       86.3201,
       26.1259
      ],
      [
       86.07,
       26.05
      ],
      [
       85.8467,
       26.1499
      ],
      [
       85.7084,
       26.35
      ],
      [
       85.8467,
       26.5501
      ],
      [
       86.07,
       26.65
      ]
     ]
    ]
   }
  },
  {
   "type": "Feature",
   "properties": {
    "name": "Munger",
    "state": "Bihar",
    "hq_lat": 25.38,
    "hq_lng": 86.47
   },
   "geometry": {
    "type": "Polygon",
    "coordinates": [
     [
      [
       86.47,
       25.6
      ],
      [
       86.6519,
       25.5444
      ],
      [
       86.694,
       25.38
      ],
      [
       86.6519,
       25.2156
      ],
      [
       86.47,
       25.16
      ],
      [
       86.3076,
       25.2332
      ],
      [
       86.207,
       25.38
      ],
      [
       86.3076,
       25.5268
      ],
      [
       86.47,
       25.6
      ]
     ]
    ]
   }
  },
  {
   "type": "Feature",
   "properties": {
    "name": "Muzaffarpur",
    "state": "Bihar",
    "hq_lat": 26.12,
    "hq_lng": 85.4
   },
   "geometry": {
    "type": "Polygon",
    "coordinates": [
     [
      [
       85.4,
       26.4
      ],
      [
       85.633,
       26.3292
      ],
      [
       85.6869,
       26.12
      ],
      [
       85.633,
       25.9108
      ],
      [
       85.4,
       25.84
      ],
      [
       85.192,
       25.9332
      ],
      [
       85.0632,
       26.12
      ],
      [
       85.192,
       26.3068
      ],
      [
       85.4,
       26.4
      ]
     ]
    ]
   }
  },
  {
   "type": "Feature",
   "properties": {
    "name": "Nalanda",
    "state": "Bihar",
    "hq_lat": 25.13,
    "hq_lng": 85.44
   },
   "geometry": {
    "type": "Polygon",
    "coordinates": [
     [
      [
       85.44,
       25.37
      ],
      [
       85.6381,
       25.3093
      ],
      [
       85.6839,
       25.13
      ],
      [
       85.6381,
       24.9507
      ],
      [
       85.44,
       24.89
      ],
      [
       85.2632,
       24.9699
      ],
      [
       85.1537,
       25.13
      ],
      [
       85.2632,
       25.2901
      ],
      [
       85.44,
       25.37
      ]
     ]
    ]
   }
  },
  {
   "type": "Feature",
   "properties": {
    "name": "Nawada",
    "state": "Bihar",
    "hq_lat": 24.89,
    "hq_lng": 85.54
   },
   "geometry": {
    "type": "Polygon",
    "coordinates": [
     [
      [
       85.54,
       25.13
      ],
      [
       85.7377,
       25.0693
      ],
      [
       85.7834,
       24.89
      ],
      [
       85.7377,
       24.7107
      ],
      [
       85.54,
       24.65
      ],
      [
       85.3635,
       24.7299
      ],
      [
       85.2543,
       24.89
      ],
      [
       85.3635,
       25.0501
      ],
      [
       85.54,
       25.13
      ]
     ]
    ]
   }
  },
  {
   "type": "Feature",
   "properties": {
    "name": "Patna",
    "state": "Bihar",
    "hq_lat": 25.61,
    "hq_lng": 85.14
   },
   "geometry": {
    "type": "Polygon",
    "coordinates": [
     [
      [
       85.14,
       25.91
      ],
      [
       85.3886,
       25.8341
      ],
      [
       85.4461,
       25.61
      ],
      [
       85.3886,
       25.3859
      ],
      [
       85.14,
       25.31
      ],
      [
       84.9181,
       25.4099
      ],
      [
       84.7807,
       25.61
      ],
      [
       84.9181,
       25.8101
      ],
      [
       85.14,
       25.91
      ]
     ]
    ]
   }
  },
  {
   "type": "Feature",
   "properties": {
    "name": "Purnia",
    "state": "Bihar",
    "hq_lat": 25.78,
    "hq_lng": 87.47
   },
   "geometry": {
    "type": "Polygon",
    "coordinates": [
     [
      [
       87.47,
       26.06
      ],
      [
       87.7023,
       25.9892
      ],
      [
       87.7561,
       25.78
      ],
      [
       87.7023,
       25.5708
      ],
      [
       87.47,
       25.5
      ],
      [
       87.2626,
       25.5932
      ],
      [
       87.1342,
       25.78
      ],
      [
       87.2626,
       25.9668
      ],
      [
       87.47,
       26.06
      ]
     ]
    ]
   }
  },
  {
   "type": "Feature",
   "properties": {
    "name": "Rohtas",
    "state": "Bihar",
    "hq_lat": 24.97,
    "hq_lng": 84.01
   },
   "geometry": {
    "type": "Polygon",
    "coordinates": [
     [
      [
       84.01,
       25.29
      ],
      [
       84.2737,
       25.2091
      ],
      [
       84.3348,
       24.97
      ],
      [
       84.2737,
       24.7309
      ],
      [
       84.01,
       24.65
      ],
      [
       83.7745,
       24.7565
      ],
      [
       83.6288,
       24.97
      ],
      [
       83.7745,
       25.1835
      ],
      [
       84.01,
       25.29
      ]
     ]
    ]
   }
  },
  {
   "type": "Feature",
   "properties": {
    "name": "Saharsa",
    "state": "Bihar",
    "hq_lat": 25.88,
    "hq_lng": 86.6
   },
   "geometry": {
    "type": "Polygon",
    "coordinates": [
     [
      [
       86.6,
       26.08
      ],
      [
       86.7661,
       26.0294
      ],
      [
       86.8045,
       25.88
      ],
      [
       86.7661,
       25.7306
      ],
      [
       86.6,
       25.68
      ],
      [
       86.4517,
       25.7466
      ],
      [
       86.3599,
       25.88
      ],
      [
       86.4517,
       26.0134
      ],
      [
       86.6,
       26.08
      ]
     ]
    ]
   }
  },
  {
   "type": "Feature",
   "properties": {
    "name": "Samastipur",
    "state": "Bihar",
    "hq_lat": 25.86,
    "hq_lng": 85.78
   },
   "geometry": {
    "type": "Polygon",
    "coordinates": [
     [
      [
       85.78,
       26.11
      ],
      [
       85.9876,
       26.0468
      ],
      [
       86.0356,
       25.86
      ],
      [
       85.9876,
       25.6732
      ],
      [
       85.78,
       25.61
      ],
      [
       85.5947,
       25.6932
      ],
      [
       85.48,
       25.86
      ],
      [
       85.5947,
       26.0268
      ],
      [
       85.78,
       26.11
      ]
     ]
    ]
   }
  },
  {
   "type": "Feature",
   "properties": {
    "name": "Saran",
    "state": "Bihar",
    "hq_lat": 25.87,
    "hq_lng": 84.75
   },
   "geometry": {
    "type": "Polygon",
    "coordinates": [
     [
      [
       84.75,
       26.12
      ],
      [
       84.9576,
       26.0568
      ],
      [
       85.0056,
       25.87
      ],
      [
       84.9576,
       25.6832
      ],
      [
       84.75,
       25.62
      ],
      [
       84.5646,
       25.7032
      ],
      [
       84.4499,
       25.87
      ],
      [
       84.5646,
       26.0368
      ],
      [
       84.75,
       26.12
      ]
     ]
    ]
   }
  },
  {
   "type": "Feature",
   "properties": {
    "name": "Sheikhpura",
    "state": "Bihar",
    "hq_lat": 25.14,
    "hq_lng": 85.84
   },
   "geometry": {
    "type": "Polygon",
    "coordinates": [
     [
      [
       85.84,
       25.28
      ],
      [
       85.9555,
       25.2446
      ],
      [
       85.9823,
       25.14
      ],
      [
       85.9555,
       25.0354
      ],
      [
       85.84,
       25.0
      ],
      [
       85.7368,
       25.0466
      ],
      [
       85.673,
       25.14
      ],
      [
       85.7368,
       25.2334
      ],
      [
       85.84,
       25.28
      ]
     ]
    ]
   }
  },
  {
   "type": "Feature",
   "properties": {
    "name": "Sheohar",
    "state": "Bihar",
    "hq_lat": 26.52,
    "hq_lng": 85.3
   },
   "geometry": {
    "type": "Polygon",
    "coordinates": [
     [
      [
       85.3,
       26.64
      ],
      [
       85.4002,
       26.6097
      ],
      [
       85.4234,
       26.52
      ],
      [
       85.4002,
       26.4303
      ],
      [
       85.3,
       26.4
      ],
      [
       85.2105,
       26.4399
      ],
      [
       85.1552,
       26.52
      ],
      [
       85.2105,
       26.6001
      ],
      [
       85.3,
       26.64
      ]
     ]
    ]
   }
  },
  {
   "type": "Feature",
   "properties": {
    "name": "Sitamarhi",
    "state": "Bihar",
    "hq_lat": 26.6,
    "hq_lng": 85.49
   },
   "geometry": {
    "type": "Polygon",
    "coordinates": [
     [
      [
       85.49,
       26.82
      ],
      [
       85.6738,
       26.7644
      ],
      [
       85.7164,
       26.6
      ],
      [
       85.6738,
       26.4356
      ],
      [
       85.49,
       26.38
      ],
      [
       85.3259,
       26.4532
      ],
      [
       85.2243,
       26.6
      ],
      [
       85.3259,
       26.7468
      ],
      [
       85.49,
       26.82
      ]
     ]
    ]
   }
  },
  {
   "type": "Feature",
   "properties": {
    "name": "Siwan",
    "state": "Bihar",
    "hq_lat": 26.22,
    "hq_lng": 84.36
   },
   "geometry": {
    "type": "Polygon",
    "coordinates": [
     [
      [
       84.36,
       26.44
      ],
      [
       84.5432,
       26.3844
      ],
      [
       84.5856,
       26.22
      ],
      [
       84.5432,
       26.0556
      ],
      [
       84.36,
       26.0
      ],
      [
       84.1964,
       26.0732
      ],
      [
       84.0951,
       26.22
      ],
      [
       84.1964,
       26.3668
      ],
      [
       84.36,
       26.44
      ]
     ]
    ]
   }
  },
  {
   "type": "Feature",
   "properties": {
    "name": "Supaul",
    "state": "Bihar",
    "hq_lat": 26.12,
    "hq_lng": 86.6
   },
   "geometry": {
    "type": "Polygon",
    "coordinates": [
     [
      [
       86.6,
       26.34
      ],
      [
       86.7831,
       26.2844
      ],
      [
       86.8254,
       26.12
      ],
      [
       86.7831,
       25.9556
      ],
      [
       86.6,
       25.9
      ],
      [
       86.4365,
       25.9732
      ],
      [
       86.3354,
       26.12
      ],
      [
       86.4365,
       26.2668
      ],
      [
       86.6,
       26.34
      ]
     ]
    ]
   }
  },
  {
   "type": "Feature",
   "properties": {
    "name": "Vaishali",
    "state": "Bihar",
    "hq_lat": 25.99,
    "hq_lng": 85.22
   },
   "geometry": {
    "type": "Polygon",
    "coordinates": [
     [
      [
       85.22,
       26.17
      ],
      [
       85.3696,
       26.1245
      ],
      [
       85.4042,
       25.99
      ],
      [
       85.3696,
       25.8555
      ],
      [
       85.22,
       25.81
      ],
      [
       85.0864,
       25.8699
      ],
      [
       85.0037,
       25.99
      ],
      [
       85.0864,
       26.1101
      ],
      [
       85.22,
       26.17
      ]
     ]
    ]
   }
  },
  {
   "type": "Feature",
   "properties": {
    "name": "West Champaran",
    "state": "Bihar",
    "hq_lat": 26.74,
    "hq_lng": 84.34
   },
   "geometry": {
    "type": "Polygon",
    "coordinates": [
     [
      [
       84.34,
       27.08
      ],
      [
       84.6244,
       26.994
      ],
      [
       84.6903,
       26.74
      ],
      [
       84.6244,
       26.486
      ],
      [
       84.34,
       26.4
      ],
      [
       84.086,
       26.5132
      ],
      [
       83.9288,
       26.74
      ],
      [
       84.086,
       26.9668
      ],
      [
       84.34,
       27.08
      ]
     ]
    ]
   }
  }
 ]
}