{
  "type": "FeatureCollection",
  "name": "Bihar Forests and Protected Natural Areas",
  "crs": {
    "type": "name",
    "properties": {
      "name": "urn:ogc:def:crs:OGC:1.3:CRS84"
    }
  },
  "metadata": {
    "source": "OpenStreetMap",
    "attribution": "© OpenStreetMap contributors",
    "license": "Open Data Commons Open Database License 1.0 (ODbL)",
    "timestamp": "2026-08-16T10:53:51Z",
    "feature_count": 13,
    "raw_points_count": 8436,
    "simplified_points_count": 1016,
    "processing": "Spatially filtered to Bihar administrative boundaries, simplified via Douglas-Peucker (epsilon=0.0005)"
  },
  "features": [
    {
      "type": "Feature",
      "properties": {
        "name": "Kaimur WLS",
        "name_hi": null,
        "name_en": null,
        "type": "protected_area",
        "protect_class": "4",
        "boundary": "protected_area",
        "leisure": "nature_reserve",
        "landuse": null,
        "natural": null,
        "osm_id": "way/668769113",
        "source": "OpenStreetMap",
        "source_url": "https://www.openstreetmap.org/way/668769113",
        "wikidata": "Q15232550",
        "wikipedia": "en:Kaimur Wildlife Sanctuary"
      },
      "geometry": {
        "type": "Polygon",
        "coordinates": [
          [
            [
              83.3552,
              24.98882
            ],
            [
              83.34635,
              24.98815
            ],
            [
              83.34673,
              24.96318
            ],
            [
              83.35203,
              24.96209
            ],
            [
              83.35447,
              24.95797
            ],
            [
              83.36125,
              24.95614
            ],
            [
              83.36254,
              24.95317
            ],
            [
              83.36145,
              24.94445
            ],
            [
              83.36181,
              24.94219
            ],
            [
              83.36514,
              24.93804
            ],
            [
              83.36546,
              24.93655
            ],
            [
              83.36464,
              24.9353
            ],
            [
              83.3617,
              24.93423
            ],
            [
              83.36055,
              24.93266
            ],
            [
              83.36364,
              24.92717
            ],
            [
              83.36183,
              24.92184
            ],
            [
              83.36233,
              24.91746
            ],
            [
              83.36393,
              24.91426
            ],
            [
              83.36349,
              24.91137
            ],
            [
              83.3619,
              24.90874
            ],
            [
              83.35501,
              24.90668
            ],
            [
              83.35443,
              24.90521
            ],
            [
              83.35733,
              24.90043
            ],
            [
              83.36376,
              24.89629
            ],
            [
              83.36587,
              24.89305
            ],
            [
              83.36582,
              24.89058
            ],
            [
              83.36471,
              24.89019
            ],
            [
              83.35985,
              24.89128
            ],
            [
              83.35853,
              24.89052
            ],
            [
              83.35754,
              24.8893
            ],
            [
              83.35842,
              24.88717
            ],
            [
              83.36048,
              24.88519
            ],
            [
              83.36914,
              24.88056
            ],
            [
              83.36921,
              24.87853
            ],
            [
              83.36833,
              24.8767
            ],
            [
              83.36093,
              24.87402
            ],
            [
              83.35719,
              24.87035
            ],
            [
              83.3761,
              24.85844
            ],
            [
              83.37996,
              24.85435
            ],
            [
              83.37984,
              24.84988
            ],
            [
              83.384,
              24.84263
            ],
            [
              83.38691,
              24.83966
            ],
            [
              83.39111,
              24.84098
            ],
            [
              83.39274,
              24.84077
            ],
            [
              83.3935,
              24.83534
            ],
            [
              83.39689,
              24.8311
            ],
            [
              83.39526,
              24.82635
            ],
            [
              83.39582,
              24.82528
            ],
            [
              83.3975,
              24.82466
            ],
            [
              83.39833,
              24.82217
            ],
            [
              83.40172,
              24.81794
            ],
            [
              83.40196,
              24.81301
            ],
            [
              83.39993,
              24.80913
            ],
            [
              83.39484,
              24.80565
            ],
            [
              83.39372,
              24.80368
            ],
            [
              83.39546,
              24.80119
            ],
            [
              83.39578,
              24.7992
            ],
            [
              83.39966,
              24.79536
            ],
            [
              83.39228,
              24.7897
            ],
            [
              83.39362,
              24.78243
            ],
            [
              83.41932,
              24.76993
            ],
            [
              83.45322,
              24.73335
            ],
            [
              83.47998,
              24.73781
            ],
            [
              83.48873,
              24.72526
            ],
            [
              83.48087,
              24.7057
            ],
            [
              83.49202,
              24.70525
            ],
            [
              83.51254,
              24.6834
            ],
            [
              83.49961,
              24.66868
            ],
            [
              83.49737,
              24.65173
            ],
            [
              83.52414,
              24.64415
            ],
            [
              83.52057,
              24.62988
            ],
            [
              83.54153,
              24.62453
            ],
            [
              83.51745,
              24.60312
            ],
            [
              83.52547,
              24.58038
            ],
            [
              83.52154,
              24.54727
            ],
            [
              83.52159,
              24.53791
            ],
            [
              83.53686,
              24.53752
            ],
            [
              83.55163,
              24.53877
            ],
            [
              83.5663,
              24.53893
            ],
            [
              83.59162,
              24.53799
            ],
            [
              83.60982,
              24.53853
            ],
            [
              83.61694,
              24.53557
            ],
            [
              83.62741,
              24.53323
            ],
            [
              83.64398,
              24.5358
            ],
            [
              83.66878,
              24.53799
            ],
            [
              83.68217,
              24.54096
            ],
            [
              83.69805,
              24.54127
            ],
            [
              83.7105,
              24.54494
            ],
            [
              83.7293,
              24.55477
            ],
            [
              83.74088,
              24.55532
            ],
            [
              83.75092,
              24.56032
            ],
            [
              83.75625,
              24.56633
            ],
            [
              83.78105,
              24.57788
            ],
            [
              83.79624,
              24.581
            ],
            [
              83.80843,
              24.59029
            ],
            [
              83.83864,
              24.60246
            ],
            [
              83.85187,
              24.60211
            ],
            [
              83.8527,
              24.60639
            ],
            [
              83.85598,
              24.60746
            ],
            [
              83.85954,
              24.60639
            ],
            [
              83.86544,
              24.60637
            ],
            [
              83.868,
              24.60412
            ],
            [
              83.87557,
              24.59987
            ],
            [
              83.88285,
              24.59704
            ],
            [
              83.89473,
              24.59548
            ],
            [
              83.89877,
              24.59607
            ],
            [
              83.90089,
              24.60067
            ],
            [
              83.90804,
              24.60319
            ],
            [
              83.90933,
              24.60537
            ],
            [
              83.9139,
              24.60687
            ],
            [
              83.92059,
              24.61228
            ],
            [
              83.9245,
              24.61388
            ],
            [
              83.93222,
              24.61304
            ],
            [
              83.93555,
              24.61708
            ],
            [
              83.93559,
              24.62115
            ],
            [
              83.94842,
              24.62619
            ],
            [
              83.94894,
              24.63028
            ],
            [
              83.9467,
              24.64729
            ],
            [
              83.9413,
              24.65427
            ],
            [
              83.93744,
              24.65677
            ],
            [
              83.93473,
              24.66305
            ],
            [
              83.92795,
              24.66422
            ],
            [
              83.92413,
              24.66632
            ],
            [
              83.9192,
              24.67096
            ],
            [
              83.90654,
              24.67381
            ],
            [
              83.90036,
              24.67884
            ],
            [
              83.89843,
              24.6857
            ],
            [
              83.89465,
              24.69397
            ],
            [
              83.8895,
              24.6981
            ],
            [
              83.88628,
              24.70586
            ],
            [
              83.88692,
              24.70711
            ],
            [
              83.89139,
              24.70586
            ],
            [
              83.9025,
              24.69978
            ],
            [
              83.904,
              24.69674
            ],
            [
              83.90697,
              24.69444
            ],
            [
              83.91349,
              24.69276
            ],
            [
              83.9198,
              24.68773
            ],
            [
              83.93031,
              24.68555
            ],
            [
              83.93469,
              24.68216
            ],
            [
              83.93786,
              24.67315
            ],
            [
              83.94263,
              24.66948
            ],
            [
              83.94619,
              24.66808
            ],
            [
              83.94988,
              24.66956
            ],
            [
              83.95709,
              24.6749
            ],
            [
              83.96151,
              24.67674
            ],
            [
              83.96524,
              24.67112
            ],
            [
              83.97675,
              24.67174
            ],
            [
              83.98297,
              24.67522
            ],
            [
              83.98698,
              24.68847
            ],
            [
              83.99016,
              24.69138
            ],
            [
              83.9923,
              24.69676
            ],
            [
              83.98968,
              24.70122
            ],
            [
              83.98743,
              24.70816
            ],
            [
              83.98449,
              24.7228
            ],
            [
              83.99443,
              24.73085
            ],
            [
              84.00378,
              24.73327
            ],
            [
              84.00644,
              24.73787
            ],
            [
              84.00867,
              24.74878
            ],
            [
              84.01365,
              24.76624
            ],
            [
              84.01554,
              24.77918
            ],
            [
              84.01528,
              24.79125
            ],
            [
              84.01297,
              24.79523
            ],
            [
              84.00902,
              24.79554
            ],
            [
              83.99576,
              24.79414
            ],
            [
              83.99859,
              24.79651
            ],
            [
              84.00782,
              24.79959
            ],
            [
              84.01327,
              24.80399
            ],
            [
              84.01649,
              24.80812
            ],
            [
              84.0185,
              24.814
            ],
            [
              84.01906,
              24.82534
            ],
            [
              84.01709,
              24.82869
            ],
            [
              84.01155,
              24.83114
            ],
            [
              84.01099,
              24.83636
            ],
            [
              84.01168,
              24.84314
            ],
            [
              84.01005,
              24.8496
            ],
            [
              84.01683,
              24.84867
            ],
            [
              84.02369,
              24.85256
            ],
            [
              84.0564,
              24.86549
            ],
            [
              84.07554,
              24.86666
            ],
            [
              84.07974,
              24.87008
            ],
            [
              84.07785,
              24.88309
            ],
            [
              84.04635,
              24.89025
            ],
            [
              84.04288,
              24.89413
            ],
            [
              84.04432,
              24.90302
            ],
            [
              84.04899,
              24.91709
            ],
            [
              84.02758,
              24.91287
            ],
            [
              84.01958,
              24.90115
            ],
            [
              84.01752,
              24.89601
            ],
            [
              84.01039,
              24.8894
            ],
            [
              83.98902,
              24.87499
            ],
            [
              83.97743,
              24.86401
            ],
            [
              83.96765,
              24.85287
            ],
            [
              83.93649,
              24.82857
            ],
            [
              83.92868,
              24.81424
            ],
            [
              83.93126,
              24.79873
            ],
            [
              83.92427,
              24.79653
            ],
            [
              83.91718,
              24.80029
            ],
            [
              83.90018,
              24.8218
            ],
            [
              83.88817,
              24.82927
            ],
            [
              83.87873,
              24.83145
            ],
            [
              83.87289,
              24.82694
            ],
            [
              83.8662,
              24.82553
            ],
            [
              83.85706,
              24.82868
            ],
            [
              83.85023,
              24.83364
            ],
            [
              83.83976,
              24.83597
            ],
            [
              83.82328,
              24.83831
            ],
            [
              83.80869,
              24.838
            ],
            [
              83.78998,
              24.83177
            ],
            [
              83.76165,
              24.83286
            ],
            [
              83.75376,
              24.83504
            ],
            [
              83.74157,
              24.83177
            ],
            [
              83.73247,
              24.83068
            ],
            [
              83.73316,
              24.81883
            ],
            [
              83.72149,
              24.8098
            ],
            [
              83.70698,
              24.82717
            ],
            [
              83.69436,
              24.83769
            ],
            [
              83.69033,
              24.84384
            ],
            [
              83.69591,
              24.851
            ],
            [
              83.70921,
              24.85653
            ],
            [
              83.71084,
              24.86136
            ],
            [
              83.69574,
              24.87047
            ],
            [
              83.69265,
              24.87429
            ],
            [
              83.68629,
              24.87756
            ],
            [
              83.6711,
              24.87234
            ],
            [
              83.65788,
              24.86238
            ],
            [
              83.64552,
              24.85428
            ],
            [
              83.63746,
              24.84766
            ],
            [
              83.63265,
              24.84493
            ],
            [
              83.62527,
              24.84672
            ],
            [
              83.61978,
              24.85147
            ],
            [
              83.61694,
              24.85801
            ],
            [
              83.61119,
              24.87655
            ],
            [
              83.61231,
              24.88247
            ],
            [
              83.61772,
              24.88683
            ],
            [
              83.62784,
              24.88737
            ],
            [
              83.63385,
              24.88908
            ],
            [
              83.63857,
              24.89235
            ],
            [
              83.64492,
              24.89959
            ],
            [
              83.64295,
              24.9052
            ],
            [
              83.63342,
              24.90567
            ],
            [
              83.62638,
              24.91049
            ],
            [
              83.61909,
              24.91228
            ],
            [
              83.61016,
              24.91291
            ],
            [
              83.60415,
              24.90979
            ],
            [
              83.60381,
              24.90551
            ],
            [
              83.60647,
              24.89547
            ],
            [
              83.60621,
              24.88986
            ],
            [
              83.60098,
              24.88574
            ],
            [
              83.59549,
              24.8848
            ],
            [
              83.58956,
              24.89087
            ],
            [
              83.58622,
              24.89718
            ],
            [
              83.58107,
              24.90076
            ],
            [
              83.56871,
              24.90131
            ],
            [
              83.56278,
              24.90306
            ],
            [
              83.55871,
              24.90991
            ],
            [
              83.55909,
              24.91186
            ],
            [
              83.56476,
              24.91501
            ],
            [
              83.56566,
              24.91742
            ],
            [
              83.5651,
              24.92112
            ],
            [
              83.56321,
              24.92236
            ],
            [
              83.56154,
              24.92509
            ],
            [
              83.55884,
              24.9268
            ],
            [
              83.5548,
              24.92703
            ],
            [
              83.53515,
              24.921
            ],
            [
              83.51935,
              24.92155
            ],
            [
              83.51034,
              24.92042
            ],
            [
              83.50858,
              24.91485
            ],
            [
              83.50678,
              24.91197
            ],
            [
              83.50802,
              24.90617
            ],
            [
              83.5097,
              24.90298
            ],
            [
              83.5094,
              24.89652
            ],
            [
              83.51073,
              24.89263
            ],
            [
              83.51124,
              24.88733
            ],
            [
              83.50987,
              24.88352
            ],
            [
              83.50493,
              24.88247
            ],
            [
              83.49674,
              24.88336
            ],
            [
              83.49708,
              24.88722
            ],
            [
              83.50142,
              24.89181
            ],
            [
              83.50275,
              24.89753
            ],
            [
              83.5015,
              24.89987
            ],
            [
              83.49888,
              24.90146
            ],
            [
              83.49923,
              24.90481
            ],
            [
              83.5003,
              24.90668
            ],
            [
              83.49888,
              24.90913
            ],
            [
              83.49893,
              24.91166
            ],
            [
              83.50236,
              24.91688
            ],
            [
              83.50159,
              24.91843
            ],
            [
              83.4976,
              24.91945
            ],
            [
              83.50841,
              24.92322
            ],
            [
              83.50047,
              24.9282
            ],
            [
              83.49554,
              24.92875
            ],
            [
              83.49056,
              24.93061
            ],
            [
              83.46906,
              24.93159
            ],
            [
              83.46743,
              24.93704
            ],
            [
              83.47326,
              24.94209
            ],
            [
              83.47927,
              24.94474
            ],
            [
              83.48425,
              24.94832
            ],
            [
              83.48794,
              24.9526
            ],
            [
              83.48648,
              24.95634
            ],
            [
              83.47515,
              24.96466
            ],
            [
              83.47215,
              24.9698
            ],
            [
              83.45768,
              24.9798
            ],
            [
              83.44254,
              24.98061
            ],
            [
              83.43554,
              24.97937
            ],
            [
              83.43151,
              24.97987
            ],
            [
              83.42919,
              24.98357
            ],
            [
              83.4349,
              24.98761
            ],
            [
              83.43593,
              24.99111
            ],
            [
              83.43322,
              24.99333
            ],
            [
              83.42854,
              24.99368
            ],
            [
              83.4234,
              24.99563
            ],
            [
              83.42211,
              24.99543
            ],
            [
              83.42138,
              24.99345
            ],
            [
              83.41713,
              24.98929
            ],
            [
              83.41232,
              24.98917
            ],
            [
              83.40537,
              24.99392
            ],
            [
              83.40365,
              24.99714
            ],
            [
              83.40061,
              24.99827
            ],
            [
              83.39739,
              24.99769
            ],
            [
              83.39623,
              24.99376
            ],
            [
              83.38778,
              24.99275
            ],
            [
              83.37919,
              24.99691
            ],
            [
              83.37584,
              24.99777
            ],
            [
              83.37198,
              24.99734
            ],
            [
              83.3552,
              24.98882
            ]
          ]
        ]
      }
    },
    {
      "type": "Feature",
      "properties": {
        "name": "Pant (Rajgir) WLS",
        "name_hi": null,
        "name_en": null,
        "type": "protected_area",
        "protect_class": "4",
        "boundary": "protected_area",
        "leisure": "nature_reserve",
        "landuse": null,
        "natural": null,
        "osm_id": "way/668763979",
        "source": "OpenStreetMap",
        "source_url": "https://www.openstreetmap.org/way/668763979",
        "wikidata": "Q85846882",
        "wikipedia": "en:Pant Wildlife Sanctuary"
      },
      "geometry": {
        "type": "Polygon",
        "coordinates": [
          [
            [
              85.35572,
              24.96258
            ],
            [
              85.36981,
              24.94349
            ],
            [
              85.37697,
              24.94884
            ],
            [
              85.38204,
              24.95582
            ],
            [
              85.38734,
              24.96087
            ],
            [
              85.39296,
              24.96471
            ],
            [
              85.39719,
              24.96888
            ],
            [
              85.40144,
              24.97133
            ],
            [
              85.41149,
              24.9736
            ],
            [
              85.42097,
              24.97332
            ],
            [
              85.43998,
              24.98285
            ],
            [
              85.45411,
              24.98699
            ],
            [
              85.45821,
              24.98969
            ],
            [
              85.46418,
              24.99168
            ],
            [
              85.46497,
              24.99519
            ],
            [
              85.47221,
              24.9979
            ],
            [
              85.4754,
              24.99787
            ],
            [
              85.4886,
              25.0045
            ],
            [
              85.49989,
              25.00628
            ],
            [
              85.50474,
              25.00544
            ],
            [
              85.50916,
              25.00641
            ],
            [
              85.50908,
              25.0072
            ],
            [
              85.50545,
              25.00882
            ],
            [
              85.50451,
              25.01412
            ],
            [
              85.50348,
              25.01438
            ],
            [
              85.5033,
              25.01574
            ],
            [
              85.50185,
              25.01659
            ],
            [
              85.50647,
              25.01519
            ],
            [
              85.51142,
              25.01702
            ],
            [
              85.51615,
              25.02113
            ],
            [
              85.51698,
              25.02066
            ],
            [
              85.51853,
              25.02139
            ],
            [
              85.5199,
              25.02566
            ],
            [
              85.51615,
              25.0293
            ],
            [
              85.51292,
              25.03115
            ],
            [
              85.50699,
              25.03109
            ],
            [
              85.50373,
              25.02817
            ],
            [
              85.499,
              25.02798
            ],
            [
              85.48443,
              25.02286
            ],
            [
              85.48112,
              25.02085
            ],
            [
              85.46649,
              25.01966
            ],
            [
              85.46299,
              25.01872
            ],
            [
              85.45734,
              25.01387
            ],
            [
              85.45527,
              25.01092
            ],
            [
              85.4524,
              25.00953
            ],
            [
              85.44953,
              25.00922
            ],
            [
              85.44652,
              25.00909
            ],
            [
              85.44511,
              25.00987
            ],
            [
              85.4445,
              25.01146
            ],
            [
              85.44445,
              25.01667
            ],
            [
              85.44616,
              25.01839
            ],
            [
              85.44597,
              25.02072
            ],
            [
              85.4336,
              25.02123
            ],
            [
              85.4284,
              25.01898
            ],
            [
              85.42482,
              25.01633
            ],
            [
              85.42254,
              25.01428
            ],
            [
              85.42195,
              25.01186
            ],
            [
              85.42073,
              25.01095
            ],
            [
              85.41723,
              25.01142
            ],
            [
              85.40401,
              25.00649
            ],
            [
              85.39425,
              25.00405
            ],
            [
              85.38322,
              24.99859
            ],
            [
              85.37783,
              24.99682
            ],
            [
              85.36794,
              24.99241
            ],
            [
              85.36468,
              24.9891
            ],
            [
              85.36082,
              24.98698
            ],
            [
              85.34252,
              24.9795
            ],
            [
              85.34135,
              24.97729
            ],
            [
              85.33517,
              24.97271
            ],
            [
              85.33466,
              24.97158
            ],
            [
              85.33231,
              24.97051
            ],
            [
              85.33132,
              24.9712
            ],
            [
              85.32926,
              24.9706
            ],
            [
              85.32923,
              24.966
            ],
            [
              85.33473,
              24.9648
            ],
            [
              85.33947,
              24.96628
            ],
            [
              85.34498,
              24.96971
            ],
            [
              85.35063,
              24.9755
            ],
            [
              85.35684,
              24.97566
            ],
            [
              85.35924,
              24.97704
            ],
            [
              85.36364,
              24.97784
            ],
            [
              85.35572,
              24.96258
            ]
          ]
        ]
      }
    },
    {
      "type": "Feature",
      "properties": {
        "name": "Barela Jheel Salim Ali Bird WLS",
        "name_hi": null,
        "name_en": null,
        "type": "protected_area",
        "protect_class": "4",
        "boundary": "protected_area",
        "leisure": null,
        "landuse": null,
        "natural": "wetland",
        "osm_id": "way/668838321",
        "source": "OpenStreetMap",
        "source_url": "https://www.openstreetmap.org/way/668838321",
        "wikidata": "Q130974238",
        "wikipedia": "en:Barela Bird Sanctuary"
      },
      "geometry": {
        "type": "Polygon",
        "coordinates": [
          [
            [
              85.55491,
              25.75097
            ],
            [
              85.54916,
              25.7529
            ],
            [
              85.54393,
              25.75731
            ],
            [
              85.53483,
              25.75785
            ],
            [
              85.5326,
              25.76357
            ],
            [
              85.53251,
              25.77006
            ],
            [
              85.53346,
              25.77477
            ],
            [
              85.53732,
              25.77732
            ],
            [
              85.54264,
              25.77694
            ],
            [
              85.5477,
              25.77547
            ],
            [
              85.55097,
              25.77578
            ],
            [
              85.55071,
              25.77879
            ],
            [
              85.5538,
              25.77825
            ],
            [
              85.56067,
              25.77184
            ],
            [
              85.56427,
              25.77068
            ],
            [
              85.5732,
              25.77153
            ],
            [
              85.57766,
              25.76055
            ],
            [
              85.56882,
              25.75746
            ],
            [
              85.56556,
              25.75491
            ],
            [
              85.55792,
              25.75112
            ],
            [
              85.55491,
              25.75097
            ]
          ]
        ]
      }
    },
    {
      "type": "Feature",
      "properties": {
        "name": "Bhimbandh WLS",
        "name_hi": null,
        "name_en": null,
        "type": "protected_area",
        "protect_class": "4",
        "boundary": "protected_area",
        "leisure": null,
        "landuse": null,
        "natural": "wood",
        "osm_id": "way/668864873",
        "source": "OpenStreetMap",
        "source_url": "https://www.openstreetmap.org/way/668864873",
        "wikidata": "Q15198953",
        "wikipedia": "en:Bhimbandh Wildlife Sanctuary"
      },
      "geometry": {
        "type": "Polygon",
        "coordinates": [
          [
            [
              86.16129,
              25.13661
            ],
            [
              86.18846,
              25.13574
            ],
            [
              86.19691,
              25.13685
            ],
            [
              86.205,
              25.13684
            ],
            [
              86.21878,
              25.1391
            ],
            [
              86.24169,
              25.13968
            ],
            [
              86.24476,
              25.14082
            ],
            [
              86.24471,
              25.14187
            ],
            [
              86.24381,
              25.14326
            ],
            [
              86.23896,
              25.14466
            ],
            [
              86.23826,
              25.14628
            ],
            [
              86.23954,
              25.14703
            ],
            [
              86.24841,
              25.14641
            ],
            [
              86.25476,
              25.14696
            ],
            [
              86.25604,
              25.14587
            ],
            [
              86.25858,
              25.14719
            ],
            [
              86.25883,
              25.14806
            ],
            [
              86.25759,
              25.15033
            ],
            [
              86.2583,
              25.15067
            ],
            [
              86.26375,
              25.14991
            ],
            [
              86.27006,
              25.15096
            ],
            [
              86.27536,
              25.15026
            ],
            [
              86.28055,
              25.15168
            ],
            [
              86.28224,
              25.15288
            ],
            [
              86.28192,
              25.15756
            ],
            [
              86.27744,
              25.15785
            ],
            [
              86.2739,
              25.15997
            ],
            [
              86.27179,
              25.16226
            ],
            [
              86.27059,
              25.16587
            ],
            [
              86.27068,
              25.16939
            ],
            [
              86.26935,
              25.17123
            ],
            [
              86.26945,
              25.17232
            ],
            [
              86.27096,
              25.1743
            ],
            [
              86.27443,
              25.1762
            ],
            [
              86.29014,
              25.17882
            ],
            [
              86.29308,
              25.17772
            ],
            [
              86.29656,
              25.17826
            ],
            [
              86.29881,
              25.17721
            ],
            [
              86.30108,
              25.17758
            ],
            [
              86.30117,
              25.17453
            ],
            [
              86.30407,
              25.17383
            ],
            [
              86.30525,
              25.1742
            ],
            [
              86.30422,
              25.17651
            ],
            [
              86.30518,
              25.17745
            ],
            [
              86.30636,
              25.17628
            ],
            [
              86.30786,
              25.17717
            ],
            [
              86.30866,
              25.17708
            ],
            [
              86.30837,
              25.17546
            ],
            [
              86.30713,
              25.17429
            ],
            [
              86.3076,
              25.17236
            ],
            [
              86.30859,
              25.17253
            ],
            [
              86.31297,
              25.17539
            ],
            [
              86.31201,
              25.17719
            ],
            [
              86.31647,
              25.17729
            ],
            [
              86.31909,
              25.1798
            ],
            [
              86.32381,
              25.1798
            ],
            [
              86.3302,
              25.1809
            ],
            [
              86.33276,
              25.18207
            ],
            [
              86.33565,
              25.18207
            ],
            [
              86.33662,
              25.18244
            ],
            [
              86.33574,
              25.18372
            ],
            [
              86.33627,
              25.18469
            ],
            [
              86.34278,
              25.18751
            ],
            [
              86.35099,
              25.18842
            ],
            [
              86.35165,
              25.18762
            ],
            [
              86.35533,
              25.18883
            ],
            [
              86.35766,
              25.188
            ],
            [
              86.36206,
              25.18854
            ],
            [
              86.36653,
              25.18572
            ],
            [
              86.36798,
              25.1877
            ],
            [
              86.37208,
              25.18794
            ],
            [
              86.37445,
              25.18898
            ],
            [
              86.36951,
              25.19234
            ],
            [
              86.36994,
              25.19345
            ],
            [
              86.37511,
              25.19519
            ],
            [
              86.38408,
              25.19568
            ],
            [
              86.38417,
              25.1896
            ],
            [
              86.38597,
              25.18797
            ],
            [
              86.38616,
              25.18652
            ],
            [
              86.38865,
              25.18865
            ],
            [
              86.39282,
              25.18888
            ],
            [
              86.39726,
              25.18677
            ],
            [
              86.40198,
              25.18665
            ],
            [
              86.40902,
              25.18339
            ],
            [
              86.41223,
              25.18343
            ],
            [
              86.4155,
              25.18475
            ],
            [
              86.42498,
              25.19133
            ],
            [
              86.43972,
              25.19137
            ],
            [
              86.44268,
              25.19034
            ],
            [
              86.44517,
              25.18745
            ],
            [
              86.44991,
              25.18807
            ],
            [
              86.45923,
              25.18686
            ],
            [
              86.46116,
              25.18797
            ],
            [
              86.46296,
              25.1905
            ],
            [
              86.46279,
              25.19723
            ],
            [
              86.46644,
              25.19813
            ],
            [
              86.46914,
              25.20116
            ],
            [
              86.46315,
              25.20581
            ],
            [
              86.45875,
              25.21249
            ],
            [
              86.45708,
              25.22183
            ],
            [
              86.45751,
              25.2229
            ],
            [
              86.46099,
              25.22201
            ],
            [
              86.46221,
              25.22278
            ],
            [
              86.46532,
              25.22088
            ],
            [
              86.46775,
              25.21663
            ],
            [
              86.46888,
              25.21686
            ],
            [
              86.46687,
              25.22138
            ],
            [
              86.46845,
              25.22465
            ],
            [
              86.468,
              25.2276
            ],
            [
              86.47138,
              25.23328
            ],
            [
              86.47324,
              25.23494
            ],
            [
              86.48472,
              25.2339
            ],
            [
              86.48792,
              25.23526
            ],
            [
              86.49382,
              25.22944
            ],
            [
              86.49448,
              25.22907
            ],
            [
              86.49536,
              25.23004
            ],
            [
              86.49455,
              25.23513
            ],
            [
              86.49098,
              25.23965
            ],
            [
              86.49002,
              25.24452
            ],
            [
              86.49077,
              25.24794
            ],
            [
              86.4894,
              25.25223
            ],
            [
              86.49073,
              25.25595
            ],
            [
              86.4956,
              25.25611
            ],
            [
              86.49929,
              25.25477
            ],
            [
              86.50053,
              25.25578
            ],
            [
              86.50133,
              25.26016
            ],
            [
              86.50008,
              25.26387
            ],
            [
              86.50169,
              25.26878
            ],
            [
              86.50126,
              25.2745
            ],
            [
              86.50784,
              25.28177
            ],
            [
              86.50641,
              25.28458
            ],
            [
              86.5009,
              25.28739
            ],
            [
              86.49922,
              25.29887
            ],
            [
              86.49952,
              25.3031
            ],
            [
              86.50167,
              25.30791
            ],
            [
              86.50712,
              25.31016
            ],
            [
              86.51002,
              25.31352
            ],
            [
              86.51107,
              25.3249
            ],
            [
              86.5103,
              25.33081
            ],
            [
              86.51158,
              25.33533
            ],
            [
              86.51344,
              25.33706
            ],
            [
              86.51425,
              25.33915
            ],
            [
              86.51824,
              25.3411
            ],
            [
              86.5222,
              25.34497
            ],
            [
              86.52394,
              25.34545
            ],
            [
              86.52117,
              25.34029
            ],
            [
              86.51692,
              25.33749
            ],
            [
              86.5148,
              25.33419
            ],
            [
              86.51383,
              25.33189
            ],
            [
              86.51351,
              25.32549
            ],
            [
              86.51675,
              25.32405
            ],
            [
              86.51714,
              25.3231
            ],
            [
              86.51949,
              25.32522
            ],
            [
              86.52085,
              25.32479
            ],
            [
              86.52209,
              25.31849
            ],
            [
              86.5214,
              25.31673
            ],
            [
              86.52184,
              25.31301
            ],
            [
              86.52252,
              25.31183
            ],
            [
              86.52138,
              25.31001
            ],
            [
              86.52299,
              25.30868
            ],
            [
              86.52297,
              25.30469
            ],
            [
              86.52372,
              25.30319
            ],
            [
              86.52776,
              25.3033
            ],
            [
              86.52918,
              25.30264
            ],
            [
              86.52866,
              25.2998
            ],
            [
              86.53038,
              25.28225
            ],
            [
              86.52843,
              25.27136
            ],
            [
              86.52296,
              25.26075
            ],
            [
              86.52274,
              25.25818
            ],
            [
              86.52464,
              25.25489
            ],
            [
              86.52994,
              25.25656
            ],
            [
              86.53132,
              25.25821
            ],
            [
              86.53209,
              25.25772
            ],
            [
              86.5349,
              25.25186
            ],
            [
              86.53488,
              25.24874
            ],
            [
              86.53905,
              25.24225
            ],
            [
              86.5427,
              25.23841
            ],
            [
              86.54596,
              25.23196
            ],
            [
              86.54566,
              25.22699
            ],
            [
              86.54875,
              25.22521
            ],
            [
              86.55064,
              25.2223
            ],
            [
              86.55317,
              25.21197
            ],
            [
              86.55282,
              25.20805
            ],
            [
              86.5545,
              25.20265
            ],
            [
              86.55227,
              25.19527
            ],
            [
              86.55016,
              25.19275
            ],
            [
              86.54798,
              25.18265
            ],
            [
              86.54883,
              25.17729
            ],
            [
              86.55064,
              25.17345
            ],
            [
              86.54858,
              25.16758
            ],
            [
              86.54603,
              25.1665
            ],
            [
              86.54278,
              25.16793
            ],
            [
              86.53969,
              25.16502
            ],
            [
              86.53622,
              25.15709
            ],
            [
              86.52952,
              25.14595
            ],
            [
              86.52171,
              25.13773
            ],
            [
              86.51914,
              25.1361
            ],
            [
              86.51163,
              25.13248
            ],
            [
              86.5124,
              25.13546
            ],
            [
              86.51611,
              25.1395
            ],
            [
              86.51806,
              25.14033
            ],
            [
              86.52034,
              25.14348
            ],
            [
              86.52012,
              25.14464
            ],
            [
              86.51864,
              25.14534
            ],
            [
              86.5103,
              25.14606
            ],
            [
              86.50523,
              25.14356
            ],
            [
              86.49774,
              25.14134
            ],
            [
              86.49665,
              25.13734
            ],
            [
              86.49922,
              25.13691
            ],
            [
              86.50206,
              25.13868
            ],
            [
              86.50371,
              25.13864
            ],
            [
              86.50341,
              25.13707
            ],
            [
              86.50193,
              25.13555
            ],
            [
              86.49467,
              25.10876
            ],
            [
              86.49116,
              25.10387
            ],
            [
              86.49034,
              25.09485
            ],
            [
              86.48772,
              25.08614
            ],
            [
              86.47957,
              25.06698
            ],
            [
              86.47884,
              25.06286
            ],
            [
              86.47931,
              25.06092
            ],
            [
              86.49163,
              25.05431
            ],
            [
              86.48751,
              25.03852
            ],
            [
              86.4842,
              25.0365
            ],
            [
              86.48326,
              25.0351
            ],
            [
              86.48229,
              25.03004
            ],
            [
              86.48013,
              25.02761
            ],
            [
              86.48174,
              25.0255
            ],
            [
              86.48328,
              25.02538
            ],
            [
              86.48626,
              25.02752
            ],
            [
              86.48772,
              25.03008
            ],
            [
              86.49347,
              25.03008
            ],
            [
              86.49588,
              25.0262
            ],
            [
              86.49476,
              25.02308
            ],
            [
              86.49124,
              25.02248
            ],
            [
              86.49178,
              25.0203
            ],
            [
              86.49362,
              25.01923
            ],
            [
              86.49955,
              25.01836
            ],
            [
              86.50313,
              25.0157
            ],
            [
              86.51587,
              25.01221
            ],
            [
              86.5148,
              25.00978
            ],
            [
              86.5177,
              25.00626
            ],
            [
              86.51639,
              25.003
            ],
            [
              86.51927,
              25.00076
            ],
            [
              86.5177,
              24.99878
            ],
            [
              86.51785,
              24.99625
            ],
            [
              86.52042,
              24.99563
            ],
            [
              86.53025,
              25.00061
            ],
            [
              86.53832,
              25.00706
            ],
            [
              86.54128,
              25.00558
            ],
            [
              86.53909,
              25.00103
            ],
            [
              86.53875,
              24.99376
            ],
            [
              86.54059,
              24.99306
            ],
            [
              86.54497,
              24.99364
            ],
            [
              86.55008,
              24.99537
            ],
            [
              86.54233,
              24.98894
            ],
            [
              86.5312,
              24.98435
            ],
            [
              86.53139,
              24.98213
            ],
            [
              86.53523,
              24.98003
            ],
            [
              86.5336,
              24.97579
            ],
            [
              86.52609,
              24.971
            ],
            [
              86.52154,
              24.96921
            ],
            [
              86.51356,
              24.97089
            ],
            [
              86.51394,
              24.97377
            ],
            [
              86.51334,
              24.97513
            ],
            [
              86.50811,
              24.97649
            ],
            [
              86.49978,
              24.9738
            ],
            [
              86.48468,
              24.96458
            ],
            [
              86.48472,
              24.96182
            ],
            [
              86.49107,
              24.96388
            ],
            [
              86.48983,
              24.9596
            ],
            [
              86.49395,
              24.95781
            ],
            [
              86.49897,
              24.95715
            ],
            [
              86.49815,
              24.95486
            ],
            [
              86.48262,
              24.95151
            ],
            [
              86.46633,
              24.95184
            ],
            [
              86.45511,
              24.95476
            ],
            [
              86.44644,
              24.9582
            ],
            [
              86.45682,
              24.96676
            ],
            [
              86.46953,
              24.96945
            ],
            [
              86.47579,
              24.97194
            ],
            [
              86.4794,
              24.97026
            ],
            [
              86.48296,
              24.97131
            ],
            [
              86.48382,
              24.97373
            ],
            [
              86.4827,
              24.97715
            ],
            [
              86.47686,
              24.98765
            ],
            [
              86.47438,
              24.9887
            ],
            [
              86.46665,
              24.9889
            ],
            [
              86.46502,
              24.98018
            ],
            [
              86.45828,
              24.97645
            ],
            [
              86.45378,
              24.97808
            ],
            [
              86.45051,
              24.98081
            ],
            [
              86.44768,
              24.98396
            ],
            [
              86.44369,
              24.9938
            ],
            [
              86.43824,
              24.99734
            ],
            [
              86.43412,
              24.99543
            ],
            [
              86.43455,
              24.98559
            ],
            [
              86.42974,
              24.98516
            ],
            [
              86.42678,
              24.98652
            ],
            [
              86.42374,
              24.99115
            ],
            [
              86.42004,
              24.99263
            ],
            [
              86.41747,
              24.99543
            ],
            [
              86.4182,
              25.00127
            ],
            [
              86.41788,
              25.00597
            ],
            [
              86.41584,
              25.00776
            ],
            [
              86.41565,
              25.01064
            ],
            [
              86.41955,
              25.01741
            ],
            [
              86.41833,
              25.0206
            ],
            [
              86.42082,
              25.03343
            ],
            [
              86.42024,
              25.03481
            ],
            [
              86.41794,
              25.03588
            ],
            [
              86.41599,
              25.03603
            ],
            [
              86.41344,
              25.03444
            ],
            [
              86.40906,
              25.03547
            ],
            [
              86.40427,
              25.03553
            ],
            [
              86.40363,
              25.03286
            ],
            [
              86.40455,
              25.03156
            ],
            [
              86.40352,
              25.03129
            ],
            [
              86.39923,
              25.03279
            ],
            [
              86.39013,
              25.03304
            ],
            [
              86.38769,
              25.03259
            ],
            [
              86.38393,
              25.03026
            ],
            [
              86.37788,
              25.02975
            ],
            [
              86.37468,
              25.0276
            ],
            [
              86.37352,
              25.02775
            ],
            [
              86.37219,
              25.02997
            ],
            [
              86.36878,
              25.02734
            ],
            [
              86.36129,
              25.02439
            ],
            [
              86.35857,
              25.02184
            ],
            [
              86.35254,
              25.01914
            ],
            [
              86.34859,
              25.01879
            ],
            [
              86.34112,
              25.01958
            ],
            [
              86.3387,
              25.0211
            ],
            [
              86.33316,
              25.02153
            ],
            [
              86.3257,
              25.02433
            ],
            [
              86.32371,
              25.02614
            ],
            [
              86.31754,
              25.02674
            ],
            [
              86.31662,
              25.02501
            ],
            [
              86.31342,
              25.02452
            ],
            [
              86.30121,
              25.02884
            ],
            [
              86.29147,
              25.02814
            ],
            [
              86.28808,
              25.02487
            ],
            [
              86.28392,
              25.02464
            ],
            [
              86.28323,
              25.02293
            ],
            [
              86.26527,
              25.01377
            ],
            [
              86.26231,
              25.01155
            ],
            [
              86.25645,
              25.00947
            ],
            [
              86.24862,
              25.00796
            ],
            [
              86.23901,
              25.0092
            ],
            [
              86.23712,
              25.00883
            ],
            [
              86.23527,
              25.00652
            ],
            [
              86.2333,
              25.00554
            ],
            [
              86.23085,
              25.00591
            ],
            [
              86.22372,
              25.01157
            ],
            [
              86.2186,
              25.01746
            ],
            [
              86.22111,
              25.02037
            ],
            [
              86.21972,
              25.02293
            ],
            [
              86.22087,
              25.03505
            ],
            [
              86.22506,
              25.03842
            ],
            [
              86.22855,
              25.03953
            ],
            [
              86.22847,
              25.04013
            ],
            [
              86.2219,
              25.04152
            ],
            [
              86.2215,
              25.04297
            ],
            [
              86.22315,
              25.04338
            ],
            [
              86.21937,
              25.04795
            ],
            [
              86.21997,
              25.05357
            ],
            [
              86.21706,
              25.05563
            ],
            [
              86.21545,
              25.05872
            ],
            [
              86.21959,
              25.06455
            ],
            [
              86.21961,
              25.06774
            ],
            [
              86.23014,
              25.07884
            ],
            [
              86.23813,
              25.08125
            ],
            [
              86.24353,
              25.08404
            ],
            [
              86.24542,
              25.08708
            ],
            [
              86.24207,
              25.08607
            ],
            [
              86.23092,
              25.08537
            ],
            [
              86.22774,
              25.08692
            ],
            [
              86.22508,
              25.09275
            ],
            [
              86.22251,
              25.09337
            ],
            [
              86.21821,
              25.08925
            ],
            [
              86.21403,
              25.08949
            ],
            [
              86.21367,
              25.09106
            ],
            [
              86.21596,
              25.0938
            ],
            [
              86.21409,
              25.09611
            ],
            [
              86.21122,
              25.09732
            ],
            [
              86.21055,
              25.09854
            ],
            [
              86.21257,
              25.1021
            ],
            [
              86.21212,
              25.10414
            ],
            [
              86.20465,
              25.1082
            ],
            [
              86.20476,
              25.10921
            ],
            [
              86.20974,
              25.11008
            ],
            [
              86.21137,
              25.11127
            ],
            [
              86.2115,
              25.11253
            ],
            [
              86.20753,
              25.1148
            ],
            [
              86.20105,
              25.12273
            ],
            [
              86.20184,
              25.1246
            ],
            [
              86.20864,
              25.12487
            ],
            [
              86.20864,
              25.12697
            ],
            [
              86.20989,
              25.12763
            ],
            [
              86.21909,
              25.12949
            ],
            [
              86.21778,
              25.13495
            ],
            [
              86.2092,
              25.13305
            ],
            [
              86.19028,
              25.13283
            ],
            [
              86.16826,
              25.1347
            ],
            [
              86.16122,
              25.13602
            ],
            [
              86.16129,
              25.13661
            ]
          ]
        ]
      }
    },
    {
      "type": "Feature",
      "properties": {
        "name": "Nagi Dam WLS",
        "name_hi": null,
        "name_en": null,
        "type": "protected_area",
        "protect_class": "4",
        "boundary": "protected_area",
        "leisure": "nature_reserve",
        "landuse": null,
        "natural": null,
        "osm_id": "way/668877723",
        "source": "OpenStreetMap",
        "source_url": "https://www.openstreetmap.org/way/668877723",
        "wikidata": "Q104868515",
        "wikipedia": "en:Nagi Bird Sanctuary"
      },
      "geometry": {
        "type": "Polygon",
        "coordinates": [
          [
            [
              86.4,
              24.82255
            ],
            [
              86.40138,
              24.82234
            ],
            [
              86.40344,
              24.82485
            ],
            [
              86.40513,
              24.8247
            ],
            [
              86.40322,
              24.82246
            ],
            [
              86.40959,
              24.82187
            ],
            [
              86.41352,
              24.82061
            ],
            [
              86.42028,
              24.82553
            ],
            [
              86.42084,
              24.82409
            ],
            [
              86.41481,
              24.81687
            ],
            [
              86.40661,
              24.8164
            ],
            [
              86.4062,
              24.8148
            ],
            [
              86.40741,
              24.81272
            ],
            [
              86.41054,
              24.81027
            ],
            [
              86.41354,
              24.8091
            ],
            [
              86.41213,
              24.80514
            ],
            [
              86.40934,
              24.8031
            ],
            [
              86.40226,
              24.80446
            ],
            [
              86.40144,
              24.80719
            ],
            [
              86.39816,
              24.80892
            ],
            [
              86.4,
              24.82255
            ]
          ]
        ]
      }
    },
    {
      "type": "Feature",
      "properties": {
        "name": "Kanwarjheel WLS",
        "name_hi": null,
        "name_en": null,
        "type": "protected_area",
        "protect_class": "4",
        "boundary": "protected_area",
        "leisure": null,
        "landuse": null,
        "natural": "wetland",
        "osm_id": "way/155697612",
        "source": "OpenStreetMap",
        "source_url": "https://www.openstreetmap.org/way/155697612",
        "wikidata": "Q6365748",
        "wikipedia": "en:Kanwar Lake Bird Sanctuary"
      },
      "geometry": {
        "type": "Polygon",
        "coordinates": [
          [
            [
              86.15348,
              25.5892
            ],
            [
              86.14005,
              25.5838
            ],
            [
              86.12758,
              25.59104
            ],
            [
              86.11883,
              25.60759
            ],
            [
              86.10936,
              25.62089
            ],
            [
              86.10948,
              25.64013
            ],
            [
              86.11092,
              25.65732
            ],
            [
              86.12171,
              25.65959
            ],
            [
              86.13682,
              25.65375
            ],
            [
              86.14353,
              25.64489
            ],
            [
              86.16595,
              25.63018
            ],
            [
              86.16643,
              25.62089
            ],
            [
              86.17396,
              25.60181
            ],
            [
              86.17032,
              25.59646
            ],
            [
              86.16268,
              25.59646
            ],
            [
              86.15353,
              25.59868
            ],
            [
              86.15522,
              25.59302
            ],
            [
              86.15989,
              25.59088
            ],
            [
              86.15972,
              25.58851
            ],
            [
              86.15348,
              25.5892
            ]
          ]
        ]
      }
    },
    {
      "type": "Feature",
      "properties": {
        "name": "Vikramshila Gangetic Dolphin WLS",
        "name_hi": null,
        "name_en": null,
        "type": "protected_area",
        "protect_class": "4",
        "boundary": "protected_area",
        "leisure": "nature_reserve",
        "landuse": null,
        "natural": null,
        "osm_id": "way/668848106",
        "source": "OpenStreetMap",
        "source_url": "https://www.openstreetmap.org/way/668848106",
        "wikidata": "Q7929607",
        "wikipedia": "en:Vikramshila Gangetic Dolphin Sanctuary"
      },
      "geometry": {
        "type": "Polygon",
        "coordinates": [
          [
            [
              86.75061,
              25.27098
            ],
            [
              86.75764,
              25.27802
            ],
            [
              86.76676,
              25.28366
            ],
            [
              86.77579,
              25.2936
            ],
            [
              86.80384,
              25.31315
            ],
            [
              86.81748,
              25.32384
            ],
            [
              86.83611,
              25.3313
            ],
            [
              86.85499,
              25.33146
            ],
            [
              86.8636,
              25.32851
            ],
            [
              86.90448,
              25.33749
            ],
            [
              86.92819,
              25.32803
            ],
            [
              86.95979,
              25.33448
            ],
            [
              86.96786,
              25.33526
            ],
            [
              86.98653,
              25.33016
            ],
            [
              87.0158,
              25.30787
            ],
            [
              87.0373,
              25.28366
            ],
            [
              87.05978,
              25.27629
            ],
            [
              87.0785,
              25.28331
            ],
            [
              87.09394,
              25.29026
            ],
            [
              87.11514,
              25.30361
            ],
            [
              87.11437,
              25.30183
            ],
            [
              87.13707,
              25.31464
            ],
            [
              87.15368,
              25.31765
            ],
            [
              87.16694,
              25.31323
            ],
            [
              87.18971,
              25.29726
            ],
            [
              87.20188,
              25.29769
            ],
            [
              87.22921,
              25.26962
            ],
            [
              87.22561,
              25.26591
            ],
            [
              87.221,
              25.24537
            ],
            [
              87.17626,
              25.23763
            ],
            [
              87.13512,
              25.24398
            ],
            [
              87.08416,
              25.23981
            ],
            [
              87.06811,
              25.24524
            ],
            [
              87.04431,
              25.25862
            ],
            [
              87.02875,
              25.26938
            ],
            [
              87.02218,
              25.27029
            ],
            [
              87.01271,
              25.26947
            ],
            [
              86.98287,
              25.27206
            ],
            [
              86.94057,
              25.28754
            ],
            [
              86.88722,
              25.29499
            ],
            [
              86.86692,
              25.29181
            ],
            [
              86.84225,
              25.26437
            ],
            [
              86.80633,
              25.25393
            ],
            [
              86.75976,
              25.2554
            ],
            [
              86.75631,
              25.25941
            ],
            [
              86.75061,
              25.27098
            ]
          ]
        ]
      }
    },
    {
      "type": "Feature",
      "properties": {
        "name": "Nakti Dam WLS",
        "name_hi": null,
        "name_en": null,
        "type": "protected_area",
        "protect_class": "4",
        "boundary": "protected_area",
        "leisure": "nature_reserve",
        "landuse": null,
        "natural": null,
        "osm_id": "way/668879024",
        "source": "OpenStreetMap",
        "source_url": "https://www.openstreetmap.org/way/668879024",
        "wikidata": "Q130974254",
        "wikipedia": "en:Nakti Dam Wildlife Sanctuary"
      },
      "geometry": {
        "type": "Polygon",
        "coordinates": [
          [
            [
              86.43768,
              24.84791
            ],
            [
              86.44255,
              24.85136
            ],
            [
              86.44303,
              24.85377
            ],
            [
              86.44661,
              24.85669
            ],
            [
              86.44951,
              24.85661
            ],
            [
              86.45811,
              24.85389
            ],
            [
              86.45822,
              24.85108
            ],
            [
              86.45599,
              24.85063
            ],
            [
              86.45476,
              24.84945
            ],
            [
              86.45564,
              24.84727
            ],
            [
              86.46122,
              24.84553
            ],
            [
              86.46135,
              24.8438
            ],
            [
              86.45897,
              24.83994
            ],
            [
              86.45082,
              24.84084
            ],
            [
              86.44732,
              24.84318
            ],
            [
              86.44421,
              24.84312
            ],
            [
              86.43783,
              24.83868
            ],
            [
              86.4364,
              24.83887
            ],
            [
              86.43513,
              24.8403
            ],
            [
              86.43485,
              24.84285
            ],
            [
              86.43543,
              24.84512
            ],
            [
              86.43768,
              24.84791
            ]
          ]
        ]
      }
    },
    {
      "type": "Feature",
      "properties": {
        "name": "Udaipur WLS",
        "name_hi": null,
        "name_en": null,
        "type": "protected_area",
        "protect_class": "4",
        "boundary": "protected_area",
        "leisure": null,
        "landuse": null,
        "natural": "wetland",
        "osm_id": "way/668850029",
        "source": "OpenStreetMap",
        "source_url": "https://www.openstreetmap.org/way/668850029",
        "wikidata": "Q18355976",
        "wikipedia": "en:Udaypur Wildlife Sanctuary"
      },
      "geometry": {
        "type": "Polygon",
        "coordinates": [
          [
            [
              84.44237,
              26.78567
            ],
            [
              84.44433,
              26.77966
            ],
            [
              84.44201,
              26.78045
            ],
            [
              84.44088,
              26.78433
            ],
            [
              84.43568,
              26.78734
            ],
            [
              84.43216,
              26.79243
            ],
            [
              84.42985,
              26.79385
            ],
            [
              84.42667,
              26.79404
            ],
            [
              84.41886,
              26.78814
            ],
            [
              84.41676,
              26.7891
            ],
            [
              84.41564,
              26.7914
            ],
            [
              84.41066,
              26.79377
            ],
            [
              84.40697,
              26.79741
            ],
            [
              84.41023,
              26.80546
            ],
            [
              84.41504,
              26.80534
            ],
            [
              84.42328,
              26.81174
            ],
            [
              84.42399,
              26.81383
            ],
            [
              84.4277,
              26.81825
            ],
            [
              84.42935,
              26.81919
            ],
            [
              84.4347,
              26.81804
            ],
            [
              84.44259,
              26.81771
            ],
            [
              84.44828,
              26.81547
            ],
            [
              84.45231,
              26.81486
            ],
            [
              84.45457,
              26.81099
            ],
            [
              84.45334,
              26.80754
            ],
            [
              84.44648,
              26.80929
            ],
            [
              84.44545,
              26.80731
            ],
            [
              84.44796,
              26.80312
            ],
            [
              84.44864,
              26.79707
            ],
            [
              84.44819,
              26.7946
            ],
            [
              84.44907,
              26.79023
            ],
            [
              84.4451,
              26.7788
            ],
            [
              84.4451,
              26.79054
            ],
            [
              84.44628,
              26.79772
            ],
            [
              84.44557,
              26.80138
            ],
            [
              84.4433,
              26.80433
            ],
            [
              84.44083,
              26.80398
            ],
            [
              84.44019,
              26.80279
            ],
            [
              84.43871,
              26.80295
            ],
            [
              84.43804,
              26.80193
            ],
            [
              84.43465,
              26.80226
            ],
            [
              84.43435,
              26.80808
            ],
            [
              84.43218,
              26.80791
            ],
            [
              84.43,
              26.80498
            ],
            [
              84.42669,
              26.80605
            ],
            [
              84.42598,
              26.80538
            ],
            [
              84.42667,
              26.80105
            ],
            [
              84.42877,
              26.79837
            ],
            [
              84.43711,
              26.79169
            ],
            [
              84.44237,
              26.78567
            ]
          ]
        ]
      }
    },
    {
      "type": "Feature",
      "properties": {
        "name": "BSNL Area",
        "name_hi": null,
        "name_en": null,
        "type": "protected_area",
        "protect_class": null,
        "boundary": "protected_area",
        "leisure": null,
        "landuse": null,
        "natural": null,
        "osm_id": "way/704738911",
        "source": "OpenStreetMap",
        "source_url": "https://www.openstreetmap.org/way/704738911",
        "wikidata": null,
        "wikipedia": null
      },
      "geometry": {
        "type": "Polygon",
        "coordinates": [
          [
            [
              87.90637,
              26.22972
            ],
            [
              87.90633,
              26.22943
            ],
            [
              87.90628,
              26.22929
            ],
            [
              87.90595,
              26.22937
            ],
            [
              87.90568,
              26.22942
            ],
            [
              87.90553,
              26.22947
            ],
            [
              87.90548,
              26.2299
            ],
            [
              87.9059,
              26.22983
            ],
            [
              87.90637,
              26.22972
            ]
          ]
        ]
      }
    },
    {
      "type": "Feature",
      "properties": {
        "name": "Kathaura",
        "name_hi": null,
        "name_en": null,
        "type": "forest",
        "protect_class": null,
        "boundary": null,
        "leisure": null,
        "landuse": "forest",
        "natural": null,
        "osm_id": "way/1474571987",
        "source": "OpenStreetMap",
        "source_url": "https://www.openstreetmap.org/way/1474571987",
        "wikidata": null,
        "wikipedia": null
      },
      "geometry": {
        "type": "Polygon",
        "coordinates": [
          [
            [
              83.68237,
              25.06072
            ],
            [
              83.68235,
              25.06043
            ],
            [
              83.6825,
              25.06043
            ],
            [
              83.68251,
              25.06072
            ],
            [
              83.68237,
              25.06072
            ]
          ]
        ]
      }
    },
    {
      "type": "Feature",
      "properties": {
        "name": "Gandhi Mandap",
        "name_hi": null,
        "name_en": null,
        "type": "forest",
        "protect_class": null,
        "boundary": null,
        "leisure": null,
        "landuse": "forest",
        "natural": null,
        "osm_id": "way/949235008",
        "source": "OpenStreetMap",
        "source_url": "https://www.openstreetmap.org/way/949235008",
        "wikidata": null,
        "wikipedia": null
      },
      "geometry": {
        "type": "Polygon",
        "coordinates": [
          [
            [
              85.00321,
              24.81296
            ],
            [
              85.00565,
              24.81272
            ],
            [
              85.00543,
              24.8114
            ],
            [
              85.00291,
              24.81143
            ],
            [
              85.00321,
              24.81296
            ]
          ]
        ]
      }
    },
    {
      "type": "Feature",
      "properties": {
        "name": "GORHA",
        "name_hi": null,
        "name_en": null,
        "type": "forest",
        "protect_class": null,
        "boundary": null,
        "leisure": null,
        "landuse": "forest",
        "natural": null,
        "osm_id": "way/1360671608",
        "source": "OpenStreetMap",
        "source_url": "https://www.openstreetmap.org/way/1360671608",
        "wikidata": null,
        "wikipedia": null
      },
      "geometry": {
        "type": "Polygon",
        "coordinates": [
          [
            [
              86.52071,
              25.83165
            ],
            [
              86.51985,
              25.83054
            ],
            [
              86.52107,
              25.82924
            ],
            [
              86.52259,
              25.83131
            ],
            [
              86.52071,
              25.83165
            ]
          ]
        ]
      }
    }
  ]
}